[{"OBJECT_NAME":"STARLINK-31386","OBJECT_ID":"2024-056C","EPOCH":"2026-03-09T11:41:37.442688","MEAN_MOTION":15.27572805,"ECCENTRICITY":0.00014526,"INCLINATION":43.0015,"RA_OF_ASC_NODE":231.8274,"ARG_OF_PERICENTER":278.0938,"MEAN_ANOMALY":81.9748,"EPHEMERIS_TYPE":0,"CLASSIFICATION_TYPE":"U","NORAD_CAT_ID":59298,"ELEMENT_SET_NO":999,"REV_AT_EPOCH":11112,"BSTAR":1.0709417e-5,"MEAN_MOTION_DOT":3.2e-7,"MEAN_MOTION_DDOT":0},{"OBJECT_NAME":"GEOSCAN 4 (RS92S4)","OBJECT_ID":"2025-155S","EPOCH":"2026-03-09T21:50:07.724832","MEAN_MOTION":15.30369837,"ECCENTRICITY":0.00070968,"INCLINATION":97.4465,"RA_OF_ASC_NODE":37.7626,"ARG_OF_PERICENTER":154.7045,"MEAN_ANOMALY":205.4544,"EPHEMERIS_TYPE":0,"CLASSIFICATION_TYPE":"U","NORAD_CAT_ID":64892,"ELEMENT_SET_NO":999,"REV_AT_EPOCH":6562,"BSTAR":0.00068609503,"MEAN_MOTION_DOT":0.00020121,"MEAN_MOTION_DDOT":0}]
